TIANMU-1 08             
1 57400U 23101B   26066.00237819  .00000346  00000+0  14775-4 0  9993
2 57400  97.2717 118.7901 0006380 134.2174 225.9592 15.29204229146020
STARLINK-31685          
1 59578U 24076Q   26068.21099489 -.00001944  00000+0 -61184-4 0  9990
2 59578  43.0015  11.3381 0000191 282.1997  77.8834 15.27574062106435
